NORAD_CAT_ID,OBJECT_NAME,OBJECT_TYPE,EPOCH,MEAN_MOTION,ECCENTRICITY,INCLINATION,RA_OF_ASC_NODE,ARG_OF_PERICENTER,MEAN_ANOMALY,BSTAR,MEAN_MOTION_DOT,MEAN_MOTION_DDOT,TLE_LINE0,TLE_LINE1,TLE_LINE2,SEMIMAJOR_AXIS,PERIOD,APOGEE,PERIGEE,DECAYED
49166.0,STARLINK-3089,PAYLOAD,2021-10-11 14:00:01,15.6975883,0.0003647,70.0022,49.6336,279.1542,101.9632,-2.0192e-05,-2.623e-05,0.0,0 STARLINK-3089,1 49166U 21082AN  21284.58334491 -.00002623  00000-0 -20192-4 0  9996,2 49166  70.0022  49.6336 0003647 279.1542 101.9632 15.69758830  3681,6737.724,91.734,362.046,357.13199999999995,0.0
49166.0,STARLINK-3089,PAYLOAD,2021-10-11 22:00:00,15.69809366,0.0003575,70.0018,48.6964,282.9049,181.3394,-0.00063964,-0.00076074,0.0,0 STARLINK-3089,1 49166U 21082AN  21284.91667824 -.00076074  00000-0 -63964-3 0  9996,2 49166  70.0018  48.6964 0003575 282.9049 181.3394 15.69809366  5664,6737.579000000002,91.731,361.853,357.036,0.0
49166.0,STARLINK-3089,PAYLOAD,2021-10-12 14:00:01,15.69756904,0.0003518,70.0023,46.8225,280.619,349.9119,-7.1816e-05,-8.779e-05,0.0,0 STARLINK-3089,1 49166U 21082AN  21285.58334491 -.00008779  00000-0 -71816-4 0  9994,2 49166  70.0023  46.8225 0003518 280.6190 349.9119 15.69756904  5777,6737.73,91.734,361.965,357.224,0.0
49166.0,STARLINK-3089,PAYLOAD,2021-10-12 22:00:01,15.69776012,0.0003628999999999,70.0019,45.8854,282.7401,71.0086,-0.00057574,-0.00068464,0.0,0 STARLINK-3089,1 49166U 21082AN  21285.91668981 -.00068464  00000-0 -57574-3 0  9996,2 49166  70.0019  45.8854 0003629 282.7401  71.0086 15.69776012  3675,6737.675,91.733,361.985,357.095,0.0
49166.0,STARLINK-3089,PAYLOAD,2021-10-13 06:00:00,15.69720268,0.00036,70.0021,44.9487,277.3695,159.4569,0.0008906,0.0010735,0.0,0 STARLINK-3089,1 49166U 21082AN  21286.25001157  .00107350  00000-0  89060-3 0  9991,2 49166  70.0021  44.9487 0003600 277.3695 159.4569 15.69720268  5877,6737.834,91.736,362.125,357.274,0.0
49166.0,STARLINK-3089,PAYLOAD,2021-10-13 14:00:01,15.69779714,0.0003646,70.0019,44.0121,281.9519,237.9873,-0.00073471,-0.0008712999999999,0.0,0 STARLINK-3089,1 49166U 21082AN  21286.58334491 -.00087130  00000-0 -73471-3 0  9991,2 49166  70.0019  44.0121 0003646 281.9519 237.9873 15.69779714  5922,6737.6640000000025,91.733,361.986,357.0730000000001,0.0
49166.0,STARLINK-3089,PAYLOAD,2021-10-13 22:00:01,15.69762717,0.0003639,70.0015,43.0747,283.1599,319.9604,-0.0011404,-0.00134279,0.0,0 STARLINK-3089,1 49166U 21082AN  21286.91668981 -.00134279  00000-0 -11404-2 0  9996,2 49166  70.0015  43.0747 0003639 283.1599 319.9604 15.69762717  3662,6737.7130000000025,91.734,362.03,357.126,0.0
49166.0,STARLINK-3089,PAYLOAD,2021-10-14 06:00:02,15.6931415,0.0003485,70.0,42.1317,284.1593,42.0625,0.0054411,0.00693568,0.0,0 STARLINK-3089,1 49166U 21082AN  21287.25002315  .00693568  00000-0  54411-2 0  9991,2 49166  70.0000  42.1317 0003485 284.1593  42.0625 15.69314150  6038,6738.996999999999,91.76,363.21,358.51300000000015,0.0
49166.0,STARLINK-3089,PAYLOAD,2021-10-14 14:00:01,15.69731504,0.0003491,70.0021,41.2008,282.7904,126.5009,0.0001247,0.00014689,0.0,0 STARLINK-3089,1 49166U 21082AN  21287.58335648  .00014689  00000-0  12470-3 0  9996,2 49166  70.0021  41.2008 0003491 282.7904 126.5009 15.69731504  3683,6737.802,91.735,362.019,357.315,0.0
49166.0,STARLINK-3089,PAYLOAD,2021-10-14 16:00:00,15.69718843,0.0003494,70.0021,40.9665,284.9463,235.0606,0.00044625,0.00053333,0.0,0 STARLINK-3089,1 49166U 21082AN  21287.66667824  .00053333  00000-0  44625-3 0  9995,2 49166  70.0021  40.9665 0003494 284.9463 235.0606 15.69718843  6093,6737.8380000000025,91.736,362.0580000000001,357.349,0.0
49166.0,STARLINK-3089,PAYLOAD,2021-10-14 22:00:00,15.69776175,0.0003413999999999,70.0016,40.2639,285.362,206.9687,-0.00030616,-0.00036642,0.0,0 STARLINK-3089,1 49166U 21082AN  21287.91667824 -.00036642  00000-0 -30616-3 0  9994,2 49166  70.0016  40.2639 0003414 285.3620 206.9687 15.69776175  3739,6737.674,91.733,361.84,357.23900000000015,0.0
49166.0,STARLINK-3089,PAYLOAD,2021-10-15 06:00:02,15.69749207,0.0003483,70.0,39.3191,283.2870000000001,292.0739,-3.4775e-05,-4.361e-05,0.0,0 STARLINK-3089,1 49166U 21082AN  21288.25002315 -.00004361  00000-0 -34775-4 0  9994,2 49166  70.0000  39.3191 0003483 283.2870 292.0739 15.69749207  6197,6737.752,91.734,361.963,357.27,0.0
49166.0,STARLINK-3089,PAYLOAD,2021-10-15 14:00:01,15.69786297,0.0003632,70.0021,38.3903,283.7317,14.9003,-0.00061174,-0.00072726,0.0,0 STARLINK-3089,1 49166U 21082AN  21288.58334491 -.00072726  00000-0 -61174-3 0  9995,2 49166  70.0021  38.3903 0003632 283.7317  14.9003 15.69786297  6248,6737.645,91.732,361.958,357.06300000000016,0.0
49166.0,STARLINK-3089,PAYLOAD,2021-10-15 22:00:00,15.69756993,0.0003768,70.0018,37.4531,284.2528,97.5078,-0.00029521,-0.0003532,0.0,0 STARLINK-3089,1 49166U 21082AN  21288.91667824 -.00035320  00000-0 -29521-3 0  9990,2 49166  70.0018  37.4531 0003768 284.2528  97.5078 15.69756993  3663,6737.729,91.734,362.133,357.056,0.0
49166.0,STARLINK-3089,PAYLOAD,2021-10-16 06:00:02,15.69732932,0.0003657,70.0021,36.5162,278.5992,186.3473,0.0004346,0.00051958,0.0,0 STARLINK-3089,1 49166U 21082AN  21289.25002315  .00051958  00000-0  43460-3 0  9997,2 49166  70.0021  36.5162 0003657 278.5992 186.3473 15.69732932  6346,6737.7980000000025,91.735,362.127,357.199,0.0
49166.0,STARLINK-3089,PAYLOAD,2021-10-16 12:00:00,15.69795887,0.0003721,70.0024,35.8135,282.2269,154.9862,-0.0010494,-0.00123905,0.0,0 STARLINK-3089,1 49166U 21082AN  21289.50001157 -.00123905  00000-0 -10494-2 0  9992,2 49166  70.0024  35.8135 0003721 282.2269 154.9862 15.69795887  6387,6737.618,91.732,361.99,356.976,0.0
49166.0,STARLINK-3089,PAYLOAD,2021-10-16 16:00:00,15.69710682,0.0003592,70.0025,35.3449,286.3387,12.4622,8.8607e-05,0.00010362,0.0,0 STARLINK-3089,1 49166U 21082AN  21289.66667824  .00010362  00000-0  88607-4 0  9991,2 49166  70.0025  35.3449 0003592 286.3387  12.4622 15.69710682  3708,6737.861999999999,91.737,362.147,357.307,0.0
49166.0,STARLINK-3089,PAYLOAD,2021-10-16 20:00:01,15.69719364,0.0003537,70.0022,34.8765,286.7307,233.6722,-6.9429e-05,-8.482e-05,0.0,0 STARLINK-3089,1 49166U 21082AN  21289.83335648 -.00008482  00000-0 -69429-4 0  9999,2 49166  70.0022  34.8765 0003537 286.7307 233.6722 15.69719364  6432,6737.837,91.736,362.085,357.319,0.0
49166.0,STARLINK-3089,PAYLOAD,2021-10-17 06:00:00,15.6970719,0.0003431,70.0028,33.7059,280.6153,73.5796,0.00049977,0.00059771,0.0,0 STARLINK-3089,1 49166U 21082AN  21290.25001157  .00059771  00000-0  49977-3 0  9992,2 49166  70.0028  33.7059 0003431 280.6153  73.5796 15.69707190  3676,6737.871999999999,91.737,362.049,357.425,0.0
49166.0,STARLINK-3089,PAYLOAD,2021-10-17 14:00:01,15.69729314,0.0003586,70.0027,32.7691,285.5625,151.7368,0.00010733,0.0001261,0.0,0 STARLINK-3089,1 49166U 21082AN  21290.58334491  .00012610  00000-0  10733-3 0  9997,2 49166  70.0027  32.7691 0003586 285.5625 151.7368 15.69729314  6551,6737.808000000001,91.736,362.09,357.25699999999995,0.0
49166.0,STARLINK-3089,PAYLOAD,2021-10-17 22:00:00,15.69771733,0.0003593,70.0024,31.8321,285.6434,234.7629,-0.00037904,-0.00045261,0.0,0 STARLINK-3089,1 49166U 21082AN  21290.91667824 -.00045261  00000-0 -37904-3 0  9992,2 49166  70.0024  31.8321 0003593 285.6434 234.7629 15.69771733  3668,6737.687,91.733,361.973,357.131,0.0
49166.0,STARLINK-3089,PAYLOAD,2021-10-18 06:00:00,15.69759095,0.000356,70.0017,30.8952,280.0548,323.4975,0.00045469,0.00054444,0.0,0 STARLINK-3089,1 49166U 21082AN  21291.25001157  .00054444  00000-0  45469-3 0  9997,2 49166  70.0017  30.8952 0003560 280.0548 323.4975 15.69759095  6668,6737.723000000001,91.734,361.987,357.19,0.0
49166.0,STARLINK-3089,PAYLOAD,2021-10-18 14:00:01,15.69788519,0.0003688,70.001,29.9584,286.615,40.1204,0.00034353,0.00041067,0.0,0 STARLINK-3089,1 49166U 21082AN  21291.58334491  .00041067  00000-0  34353-3 0  9990,2 49166  70.0010  29.9584 0003688 286.6150  40.1204 15.69788519  3683,6737.639,91.732,361.989,357.019,0.0
49166.0,STARLINK-3089,PAYLOAD,2021-10-18 20:00:01,15.69857625,0.000377,70.0004,29.2555,286.8492,12.2666,-0.0010203,-0.00120828,0.0,0 STARLINK-3089,1 49166U 21082AN  21291.83334491 -.00120828  00000-0 -10203-2 0  9990,2 49166  70.0004  29.2555 0003770 286.8492  12.2666 15.69857625  6758,6737.441,91.728,361.846,356.766,0.0
49166.0,STARLINK-3089,PAYLOAD,2021-10-18 22:00:01,15.69839857,0.0003745,70.0005,29.0213,285.7029,124.287,-0.00098387,-0.00116495,0.0,0 STARLINK-3089,1 49166U 21082AN  21291.91668981 -.00116495  00000-0 -98387-3 0  9998,2 49166  70.0005  29.0213 0003745 285.7029 124.2870 15.69839857  3704,6737.4919999999975,91.729,361.88,356.834,0.0
49166.0,STARLINK-3089,PAYLOAD,2021-10-19 06:00:00,15.69801381,0.0003703,70.0011,28.0848,281.7064,211.4142,-0.00065253,-0.00077566,0.0,0 STARLINK-3089,1 49166U 21082AN  21292.25001157 -.00077566  00000-0 -65253-3 0  9993,2 49166  70.0011  28.0848 0003703 281.7064 211.4142 15.69801381  6810,6737.602,91.731,361.962,356.972,0.0
49166.0,STARLINK-3089,PAYLOAD,2021-10-19 14:00:01,15.6968389,0.0003897,70.001,27.1479,287.1051,289.1707,8.1097e-05,9.455e-05,0.0,0 STARLINK-3089,1 49166U 21082AN  21292.58334491  .00009455  00000-0  81097-4 0  9994,2 49166  70.0010  27.1479 0003897 287.1051 289.1707 15.69683890  3694,6737.938,91.738,362.429,357.17800000000005,0.0
49166.0,STARLINK-3089,PAYLOAD,2021-10-19 22:00:00,15.69742056,0.0003836,70.0006,26.2108,285.4219,13.8927,-0.0011067,-0.00130274,0.0,0 STARLINK-3089,1 49166U 21082AN  21292.91667824 -.00130274  00000-0 -11067-2 0  9994,2 49166  70.0006  26.2108 0003836 285.4219  13.8927 15.69742056  3683,6737.772,91.735,362.222,357.052,0.0
49166.0,STARLINK-3089,PAYLOAD,2021-10-20 14:00:01,15.69698883,0.0003442,70.0008,24.3373,289.5795,175.8266,0.00034659,0.0004128,0.0,0 STARLINK-3089,1 49166U 21082AN  21293.58334491  .00041280  00000-0  34659-3 0  9998,2 49166  70.0008  24.3373 0003442 289.5795 175.8266 15.69698883  7020,6737.896,91.737,362.08,357.441,0.0
